{"TopicId":11235,"ForumId":32,"TopicTitle":"Persistence Editing Tests","CreatedByName":"Mogadishu","CreatedById":4041,"CreatedDateTime":"2012-05-22T23:32:13Z","PageNum":1,"Articles":[{"CreatedByName":"Mogadishu","CreatedById":4041,"CreatedDateTime":"2012-05-22T23:32:13Z","Content":"\n\u003Cp\u003ERecently I messed around with the persistence save.\u003C/p\u003E\u003Cp\u003EVery interesting how it works...\u003C/p\u003E\u003Cp\u003EHere\\\u0027s an example craft debris (Modified, of course):\u003C/p\u003E\u003Cp\u003E\u003C/p\u003E\u003Cp\u003E\u003C/p\u003E\u003Cblockquote\u003E\u003Cp\u003EVESSEL\u003C/p\u003E\u003Cp\u003E{\u003C/p\u003E\u003Cp\u003E name = LOL I HAXED KSP\u003C/p\u003E\u003Cp\u003E sit = ORBITING\u003C/p\u003E\u003Cp\u003E landed = False\u003C/p\u003E\u003Cp\u003E landedAt = \u003C/p\u003E\u003Cp\u003E splashed = False\u003C/p\u003E\u003Cp\u003E met = 93.6799979060888\u003C/p\u003E\u003Cp\u003E lct = 221888.044791556\u003C/p\u003E\u003Cp\u003E root = 0\u003C/p\u003E\u003Cp\u003E lat = 0\u003C/p\u003E\u003Cp\u003E lon = 0\u003C/p\u003E\u003Cp\u003E alt = 0\u003C/p\u003E\u003Cp\u003E hgt = 4410.602\u003C/p\u003E\u003Cp\u003E nrm = -0.7499599,-0.02313594,0.6610789\u003C/p\u003E\u003Cp\u003E rot = -0.1214151,0.8454531,0.2417871,0.4604418\u003C/p\u003E\u003Cp\u003E CoM = 0.0003797354,-0.9048868,-0.0001168595\u003C/p\u003E\u003Cp\u003E stg = 0\u003C/p\u003E\u003Cp\u003E prst = False\u003C/p\u003E\u003Cp\u003E ORBIT\u003C/p\u003E\u003Cp\u003E {\u003C/p\u003E\u003Cp\u003E SMA = 52877959.4754091\u003C/p\u003E\u003Cp\u003E ECC = 0.135703177660916\u003C/p\u003E\u003Cp\u003E INC = 171.262572591462\u003C/p\u003E\u003Cp\u003E LPE = 291.628206291629\u003C/p\u003E\u003Cp\u003E LAN = 286.165852609904\u003C/p\u003E\u003Cp\u003E MNA = 0.644779570435836\u003C/p\u003E\u003Cp\u003E EPH = 14429985.998409\u003C/p\u003E\u003Cp\u003E REF = 1\u003C/p\u003E\u003Cp\u003E OBJ = 1\u003C/p\u003E\u003Cp\u003E }\u003C/p\u003E\u003Cp\u003E PART\u003C/p\u003E\u003Cp\u003E {\u003C/p\u003E\u003Cp\u003E name = Lightdecoupler\u003C/p\u003E\u003Cp\u003E uid = 4294873060\u003C/p\u003E\u003Cp\u003E parent = 0\u003C/p\u003E\u003Cp\u003E position = 0,0,0\u003C/p\u003E\u003Cp\u003E rotation = 0,0,0,0.9999999\u003C/p\u003E\u003Cp\u003E mirror = 1,1,1\u003C/p\u003E\u003Cp\u003E istg = 2\u003C/p\u003E\u003Cp\u003E dstg = 3\u003C/p\u003E\u003Cp\u003E sqor = 2\u003C/p\u003E\u003Cp\u003E sidx = 8\u003C/p\u003E\u003Cp\u003E attm = 0\u003C/p\u003E\u003Cp\u003E srfN = None, -1\u003C/p\u003E\u003Cp\u003E attN = bottom, 1\u003C/p\u003E\u003Cp\u003E attN = None, -1\u003C/p\u003E\u003Cp\u003E mass = 0.2\u003C/p\u003E\u003Cp\u003E temp = -84.89027\u003C/p\u003E\u003Cp\u003E expt = 0.5\u003C/p\u003E\u003Cp\u003E state = 2\u003C/p\u003E\u003Cp\u003E connected = False\u003C/p\u003E\u003Cp\u003E attached = False\u003C/p\u003E\u003Cp\u003E }\u003C/p\u003E\u003Cp\u003E}\u003C/p\u003E\u003C/blockquote\u003E\u003Cp\u003E\u003C/p\u003E\u003Cp\u003EAnd here\\\u0027s what they seem to do...\u003C/p\u003E\u003Cp\u003E\u003C/p\u003E\u003Cp\u003E\u003C/p\u003E\u003Cblockquote\u003E\u003Cp\u003EVESSEL\u003C/p\u003E\u003Cp\u003E{\u003C/p\u003E\u003Cp\u003E name = LOL I HAXED KSP -\u003Cstrong\u003ENAME\u003C/strong\u003E\u003C/p\u003E\u003Cp\u003E sit = ORBITING -\u003Cstrong\u003ESTATE\u003C/strong\u003E - No need to mess with this\u003C/p\u003E\u003Cp\u003E landed = False -\u003Cstrong\u003ESTATE\u003C/strong\u003E - No need to mess with this\u003C/p\u003E\u003Cp\u003E landedAt = -\u003Cstrong\u003ELANDING POSITION\u003C/strong\u003E - Not sure how this works\u003C/p\u003E\u003Cp\u003E splashed = False -\u003Cstrong\u003ESTATE\u003C/strong\u003E - No need to mess with this\u003C/p\u003E\u003Cp\u003E met = 93.6799979060888 -\u003Cstrong\u003EMISSION TIME\u003C/strong\u003E - Changes how long the mission has been running (In days)\u003C/p\u003E\u003Cp\u003E lct = 221888.044791556 -\u003Cstrong\u003ELOCATION?\u003C/strong\u003E - Not sure how this works\u003C/p\u003E\u003Cp\u003E root = 0 -\u003Cstrong\u003ELOCATION?\u003C/strong\u003E - Not sure how this works\u003C/p\u003E\u003Cp\u003E lat = 0 -\u003Cstrong\u003ELOCATION\u003C/strong\u003E - If you\\\u0027re on ground, in degrees 0-90 (\u002B north, - south)\u003C/p\u003E\u003Cp\u003E lon = 0 -\u003Cstrong\u003ELOCATION\u003C/strong\u003E - If you\\\u0027re on ground, in degrees 0-360\u003C/p\u003E\u003Cp\u003E alt = 0 -\u003Cstrong\u003ELOCATION\u003C/strong\u003E - Any numeric value\u003C/p\u003E\u003Cp\u003E hgt = 4410.602 -\u003Cstrong\u003ELOCATION?\u003C/strong\u003E - Not sure how this works\u003C/p\u003E\u003Cp\u003E nrm = -0.7499599,-0.02313594,0.6610789 -\u003Cstrong\u003EROTATION?\u003C/strong\u003E - Not sure how this works\u003C/p\u003E\u003Cp\u003E rot = -0.1214151,0.8454531,0.2417871,0.4604418 -\u003Cstrong\u003EROTATION\u003C/strong\u003E - Not sure how this works\u003C/p\u003E\u003Cp\u003E CoM = 0.0003797354,-0.9048868,-0.0001168595 -\u003Cstrong\u003EROTATION?\u003C/strong\u003E - Not sure how this works\u003C/p\u003E\u003Cp\u003E stg = 0 -\u003Cstrong\u003EROTATION?\u003C/strong\u003E - Not sure how this works\u003C/p\u003E\u003Cp\u003E prst = False -\u003Cstrong\u003EPERSISTENCE\u003C/strong\u003E - Not sure how this works\u003C/p\u003E\u003Cp\u003E ORBIT -\u003Cspan style=\u0022color:#FF0000;\u0022\u003E\u003Cstrong\u003EThis is what you\\\u0027ll probably be looking for. Change everything about your orbit.\u003C/strong\u003E\u003C/span\u003E\u003C/p\u003E\u003Cp\u003E {\u003C/p\u003E\u003Cp\u003E SMA = 52877959.4754091 -\u003Cstrong\u003ESemimajor Axis\u003C/strong\u003E - In meters, any numeric value.\u003C/p\u003E\u003Cp\u003E ECC = 0.135703177660916 -\u003Cstrong\u003EEccentricity\u003C/strong\u003E - Any positive number. (0 for a perfect circle, 0\u0026lt;e\u0026lt;1 for an ellipse, 1 for a parabola, \u0026gt;1 for a hyperbola)\u003C/p\u003E\u003Cp\u003E INC = 171.262572591462 -\u003Cstrong\u003EInclination\u003C/strong\u003E - Relative to Eerbin\\\u0027s Equator/Ecliptic (Same thing)\u003C/p\u003E\u003Cp\u003E LPE = 291.628206291629 -\u003Cstrong\u003EArgument of Periapsis\u003C/strong\u003E - In degrees, 0-360\u003C/p\u003E\u003Cp\u003E LAN = 286.165852609904 -\u003Cstrong\u003ELongitude of the Ascending Node\u003C/strong\u003E - In degrees, 0-360\u003C/p\u003E\u003Cp\u003E MNA = 0.644779570435836 -\u003Cstrong\u003EMean Anomaly\u003C/strong\u003E - I still have no idea what mean anomaly is... \u003Cimg src=\u0022//kerbal-forum-uploads.s3.us-west-2.amazonaws.com/emoticons/default_k_sad.gif\u0022 alt=\u0022:(\u0022\u003E\u003C/p\u003E\u003Cp\u003E EPH = 14429985.998409 -\u003Cstrong\u003EORBIT?\u003C/strong\u003E - Not sure how this works\u003C/p\u003E\u003Cp\u003E REF = 1 -\u003Cstrong\u003EReference Object\u003C/strong\u003E - 0 for Kerbol, 1 for Kerbin, 2 for Mun and 3 for Minmus\u003C/p\u003E\u003Cp\u003E OBJ = 1 -\u003Cstrong\u003EReference Object State\u003C/strong\u003E - 0 is a landed craft (Any object), 1 is an orbiting craft. \u003C/p\u003E\u003Cp\u003E }\u003C/p\u003E\u003Cp\u003E PART\u003C/p\u003E\u003Cp\u003E {\u003C/p\u003E\u003Cp\u003E name = Lightdecoupler -\u003Cstrong\u003EPart Name\u003C/strong\u003E - Self Explanitory, name of the folder the part resides in.\u003C/p\u003E\u003Cp\u003E uid = 4294873060 -\u003Cstrong\u003EID?\u003C/strong\u003E - To differentiate between identical objects?\u003C/p\u003E\u003Cp\u003E parent = 0 -\u003Cstrong\u003E\\\u0027Parent\\\u0027\u003C/strong\u003E - 0 is self, not sure about other options.\u003C/p\u003E\u003Cp\u003E position = 0,0,0 -\u003Cstrong\u003EPosition\u003C/strong\u003E - Relative to the parent object\u003C/p\u003E\u003Cp\u003E rotation = 0,0,0,0.9999999 -\u003Cstrong\u003ERotation\u003C/strong\u003E - Relative to the parent object\u003C/p\u003E\u003Cp\u003E mirror = 1,1,1 -\u003Cstrong\u003EMirror?\u003C/strong\u003E - For wings and stuff that use x-way symmetry\u003C/p\u003E\u003Cp\u003E istg = 2 -\u003Cstrong\u003EHuh?\u003C/strong\u003E - \u003Cspan style=\u0022text-decoration:line-through;\u0022\u003EUSELESS INFORMATION\u003C/span\u003E MOSTLY USELESS INFORMATION\u003C/p\u003E\u003Cp\u003E dstg = 3 -\u003Cstrong\u003EHuh?\u003C/strong\u003E - \u003Cspan style=\u0022text-decoration:line-through;\u0022\u003EUSELESS INFORMATION\u003C/span\u003E MOSTLY USELESS INFORMATION\u003C/p\u003E\u003Cp\u003E sqor = 2 -\u003Cstrong\u003EHuh?\u003C/strong\u003E - \u003Cspan style=\u0022text-decoration:line-through;\u0022\u003EUSELESS INFORMATION\u003C/span\u003E MOSTLY USELESS INFORMATION\u003C/p\u003E\u003Cp\u003E sidx = 8 -\u003Cstrong\u003EHuh?\u003C/strong\u003E - \u003Cspan style=\u0022text-decoration:line-through;\u0022\u003EUSELESS INFORMATION\u003C/span\u003E MOSTLY USELESS INFORMATION\u003C/p\u003E\u003Cp\u003E attm = 0 -\u003Cstrong\u003EHuh?\u003C/strong\u003E - \u003Cspan style=\u0022text-decoration:line-through;\u0022\u003EUSELESS INFORMATION\u003C/span\u003E MOSTLY USELESS INFORMATION\u003C/p\u003E\u003Cp\u003E srfN = None, -1 -\u003Cstrong\u003EHuh?\u003C/strong\u003E - \u003Cspan style=\u0022text-decoration:line-through;\u0022\u003EUSELESS INFORMATION\u003C/span\u003E MOSTLY USELESS INFORMATION\u003C/p\u003E\u003Cp\u003E attN = bottom, 1 -\u003Cstrong\u003EHuh?\u003C/strong\u003E - \u003Cspan style=\u0022text-decoration:line-through;\u0022\u003EUSELESS INFORMATION\u003C/span\u003E MOSTLY USELESS INFORMATION\u003C/p\u003E\u003Cp\u003E attN = None, -1 -\u003Cstrong\u003EHuh?\u003C/strong\u003E - \u003Cspan style=\u0022text-decoration:line-through;\u0022\u003EUSELESS INFORMATION\u003C/span\u003E MOSTLY USELESS INFORMATION\u003C/p\u003E\u003Cp\u003E mass = 0.2 -\u003Cstrong\u003EMass\u003C/strong\u003E - In KG (Kilograms? Or Kerbograms?)? Not sure, have fun screwing around with this.\u003C/p\u003E\u003Cp\u003E temp = -84.89027 - -\u003Cstrong\u003ETemperature\u003C/strong\u003E - For overheating, the lower the better.\u003C/p\u003E\u003Cp\u003E expt = 0.5 -\u003Cstrong\u003EHuh?\u003C/strong\u003E - \u003Cspan style=\u0022text-decoration:line-through;\u0022\u003EUSELESS INFORMATION\u003C/span\u003E MOSTLY USELESS INFORMATION\u003C/p\u003E\u003Cp\u003E state = 2 -\u003Cstrong\u003EHuh?\u003C/strong\u003E - \u003Cspan style=\u0022text-decoration:line-through;\u0022\u003EUSELESS INFORMATION\u003C/span\u003E MOSTLY USELESS INFORMATION\u003C/p\u003E\u003Cp\u003E connected = False -\u003Cstrong\u003ETop Connection\u003C/strong\u003E - T/F\u003C/p\u003E\u003Cp\u003E attached = False -\u003Cstrong\u003EBottom Connection\u003C/strong\u003E - T/F\u003C/p\u003E\u003Cp\u003E}\u003C/p\u003E\u003C/blockquote\u003E\u003Cp\u003E\u003C/p\u003E\u003Cp\u003EHope this is useful, whether for cheating or research, or even putting up a keostationary satellite. Share your findings, and PLEASE TELL ME WHAT MEAN ANOMALY IS I STILL DON\\\u0027T GET THE CONCEPT, \u003Cspan style=\u0022text-decoration:line-through;\u0022\u003EUSELESS INFORMATION\u003C/span\u003E MOSTLY USELESS INFORMATION IN MY OPINION.\u003C/p\u003E\n"},{"CreatedByName":"maltesh","CreatedById":17144,"CreatedDateTime":"2012-05-22T23:48:31Z","Content":"\n\u003Cp\u003EMean anomaly is a measurement of time to or since periapsis in terms of the angle (in radians) that a hypothetical object in a circular orbit whose semimajor axis is the same as your spacecraft\\\u0027s would travel.\u003C/p\u003E\u003Cp\u003EHere\\\u0027s a document I\\\u0027ve been nursing for the past few months that explains many of the orbit-related fields.\u003C/p\u003E\u003Cp\u003E\u003Ca href=\u0022https://docs.google.com/document/d/1fmTW6P91OVFj5Tuj0JzKcnfpcw79RqveQTAywrPIIrI/edit\u0022 rel=\u0022external nofollow\u0022\u003Ehttps://docs.google.com/document/d/1fmTW6P91OVFj5Tuj0JzKcnfpcw79RqveQTAywrPIIrI/edit\u003C/a\u003E\u003C/p\u003E\n"},{"CreatedByName":"wired2thenet","CreatedById":18275,"CreatedDateTime":"2012-05-23T00:05:08Z","Content":"\n\u003Cblockquote data-ipsquote=\u0022\u0022 class=\u0022ipsQuote\u0022\u003E\u003Cdiv\u003E istg = 2 -Huh? - Useless Information\u003Cp\u003E dstg = 3 -Huh? - Useless Information\u003C/p\u003E\u003C/div\u003E\u003C/blockquote\u003E\u003Cp\u003EBelieve these are related to the stages of the rocket.\u003C/p\u003E\n"},{"CreatedByName":"samstarman5","CreatedById":12469,"CreatedDateTime":"2012-05-23T02:57:49Z","Content":"\n\u003Cp\u003EOne thing I have learned back in my Commodore 64 days, toying with programming in BASIC, is that there is no such thing as useless information in any program or code/data file. You would do yourself a service by researching the commands involved here, so as to better know how to tweak the file. Just ignoring or even deleting them will either give you something you don\\\u0027t want, or end up preventing your KSP from running properly.\u003C/p\u003E\u003Cp\u003EYou don\\\u0027t get points for just saying you got into the persistence file and changed some numbers. You don\\\u0027t hear anyone bragging about getting into a car\\\u0027s computer and blatantly changing numbers in that, because it will pretty much mean the car with either stop working properly, stop working altogether, or explode.\u003C/p\u003E\n"},{"CreatedByName":"togfox","CreatedById":17083,"CreatedDateTime":"2012-05-23T03:01:40Z","Content":"\n\u003Cp\u003ENice work. Understanding and documenting these things is what makes Mods and plug-ins possible. \u003Cimg src=\u0022//kerbal-forum-uploads.s3.us-west-2.amazonaws.com/emoticons/default_k_smiley.gif\u0022 alt=\u0022:)\u0022\u003E\u003C/p\u003E\n"}]}